GLOBALSTAR M067         
1 32263U 07048A   25300.20755358 -.00000049  00000+0  35997-3 0  9999
2 32263  51.9756   9.6259 0000761 243.3367 147.2614 12.40680585825878
GLOBALSTAR M070         
1 32264U 07048B   25300.15322948 -.00000107  00000+0 -18623-4 0  9993
2 32264  51.9737  86.4756 0001016 102.5380  68.4104 12.62324942830339
GLOBALSTAR M066         
1 32265U 07048C   25300.16040890 -.00000096  00000+0 -91898-5 0  9991
2 32265  51.9627   6.8629 0004510 273.5419 107.6039 12.30378243831542
GLOBALSTAR M068         
1 32266U 07048D   25300.16064659 -.00000055  00000+0  27116-3 0  9995
2 32266  51.9880 259.9542 0001564  62.6124 310.4878 12.62831473834233
GLOBALSTAR M079         
1 37188U 10054A   25300.20078713 -.00000117  00000+0 -71611-4 0  9995
2 37188  52.0023  97.9139 0000813 118.5339  52.3251 12.62268002693129
GLOBALSTAR M074         
1 37189U 10054B   25300.14820903 -.00000111  00000+0 -43043-4 0  9997
2 37189  52.0000  97.3756 0000790  96.8786  74.6857 12.62272809693727
GLOBALSTAR M076         
1 37190U 10054C   25300.17467286 -.00000105  00000+0 -49755-5 0  9993
2 37190  52.0013  97.4795 0000591 106.1917  64.6611 12.62267084693442
GLOBALSTAR M077         
1 37191U 10054D   25300.08613575 -.00000097  00000+0 -49884-5 0  9991
2 37191  52.0085  58.5533 0002023  55.0323 116.7717 12.36452551693751
